{
  "type": "FeatureCollection",
  "features": [
    {
      "type": "Feature",
      "properties": {
        "norad_id": 35835,
        "name": "COSMOS 2251 DEB",
        "group": "cosmos-2251-debris",
        "lat": 72.64156356553715,
        "lon": -23.67830928383806,
        "alt_km": 762.5763808398906,
        "timestamp": "2025-12-11T15:53:39.940625+00:00",
        "meta_object_name": "COSMOS 2251 DEB",
        "meta_object_id": "1993-036ATH",
        "meta_epoch": "2025-12-08T02:26:31.163712",
        "meta_mean_motion": 13.82845446,
        "meta_eccentricity": 0.0289856,
        "meta_inclination": 74.0637,
        "meta_ra_of_asc_node": 276.2339,
        "meta_arg_of_pericenter": 58.9026,
        "meta_mean_anomaly": 304.0195,
        "meta_ephemeris_type": 0,
        "meta_classification_type": "U",
        "meta_norad_cat_id": 35835,
        "meta_element_set_no": 999,
        "meta_rev_at_epoch": 61635,
        "meta_bstar": 0.0020246404,
        "meta_mean_motion_dot": 3.026e-05,
        "meta_mean_motion_ddot": 0,
        "tle_line1": "1 35835U 93036ATH 25342.10174958  .00003026  00000+0  20246-2 0  9992",
        "tle_line2": "2 35835  74.0637 276.2339 0289856  58.9026 304.0195 13.82845446616351"
      },
      "geometry": {
        "type": "Point",
        "coordinates": [
          -23.67830928383806,
          72.64156356553715
        ]
      }
    },
    {
      "type": "Feature",
      "properties": {
        "norad_id": 35836,
        "name": "COSMOS 2251 DEB",
        "group": "cosmos-2251-debris",
        "lat": -39.83072363187488,
        "lon": 161.21064845960126,
        "alt_km": 662.6576096462413,
        "timestamp": "2025-12-11T15:53:39.940635+00:00",
        "meta_object_name": "COSMOS 2251 DEB",
        "meta_object_id": "1993-036ATJ",
        "meta_epoch": "2025-12-10T18:51:50.352480",
        "meta_mean_motion": 14.70892448,
        "meta_eccentricity": 0.00244147,
        "meta_inclination": 74.0314,
        "meta_ra_of_asc_node": 176.7294,
        "meta_arg_of_pericenter": 235.542,
        "meta_mean_anomaly": 124.3445,
        "meta_ephemeris_type": 0,
        "meta_classification_type": "U",
        "meta_norad_cat_id": 35836,
        "meta_element_set_no": 999,
        "meta_rev_at_epoch": 63491,
        "meta_bstar": 0.0027962773,
        "meta_mean_motion_dot": 0.00017206,
        "meta_mean_motion_ddot": 0,
        "tle_line1": "1 35836U 93036ATJ 25344.78599945  .00017206  00000+0  27963-2 0  9994",
        "tle_line2": "2 35836  74.0314 176.7294 0024414 235.5420 124.3445 14.70892448634911"
      },
      "geometry": {
        "type": "Point",
        "coordinates": [
          161.21064845960126,
          -39.83072363187488
        ]
      }
    },
    {
      "type": "Feature",
      "properties": {
        "norad_id": 35837,
        "name": "COSMOS 2251 DEB",
        "group": "cosmos-2251-debris",
        "lat": -56.126579970510484,
        "lon": -176.38148256082013,
        "alt_km": 1336.8724324934856,
        "timestamp": "2025-12-11T15:53:39.940646+00:00",
        "meta_object_name": "COSMOS 2251 DEB",
        "meta_object_id": "1993-036ATK",
        "meta_epoch": "2025-12-09T22:01:37.127712",
        "meta_mean_motion": 13.63437069,
        "meta_eccentricity": 0.04220669,
        "meta_inclination": 73.7216,
        "meta_ra_of_asc_node": 212.3216,
        "meta_arg_of_pericenter": 133.5531,
        "meta_mean_anomaly": 246.304,
        "meta_ephemeris_type": 0,
        "meta_classification_type": "U",
        "meta_norad_cat_id": 35837,
        "meta_element_set_no": 999,
        "meta_rev_at_epoch": 57938,
        "meta_bstar": 0.0025074688,
        "meta_mean_motion_dot": 3.597e-05,
        "meta_mean_motion_ddot": 0,
        "tle_line1": "1 35837U 93036ATK 25343.91779083  .00003597  00000+0  25075-2 0  9992",
        "tle_line2": "2 35837  73.7216 212.3216 0422066 133.5531 246.3040 13.63437069579385"
      },
      "geometry": {
        "type": "Point",
        "coordinates": [
          -176.38148256082013,
          -56.126579970510484
        ]
      }
    },
    {
      "type": "Feature",
      "properties": {
        "norad_id": 35839,
        "name": "COSMOS 2251 DEB",
        "group": "cosmos-2251-debris",
        "lat": -49.45309659394449,
        "lon": -53.45857265119424,
        "alt_km": 419.64519182675303,
        "timestamp": "2025-12-11T15:53:39.940656+00:00",
        "meta_object_name": "COSMOS 2251 DEB",
        "meta_object_id": "1993-036ATM",
        "meta_epoch": "2025-12-11T06:49:55.697952",
        "meta_mean_motion": 15.51084191,
        "meta_eccentricity": 0.00013087,
        "meta_inclination": 74.2078,
        "meta_ra_of_asc_node": 326.6817,
        "meta_arg_of_pericenter": 94.6072,
        "meta_mean_anomaly": 265.5293,
        "meta_ephemeris_type": 0,
        "meta_classification_type": "U",
        "meta_norad_cat_id": 35839,
        "meta_element_set_no": 999,
        "meta_rev_at_epoch": 88545,
        "meta_bstar": 0.0096119738,
        "meta_mean_motion_dot": 0.00605412,
        "meta_mean_motion_ddot": 0,
        "tle_line1": "1 35839U 93036ATM 25345.28467243  .00605412  00000+0  96120-2 0  9991",
        "tle_line2": "2 35839  74.2078 326.6817 0001308  94.6072 265.5293 15.51084191885458"
      },
      "geometry": {
        "type": "Point",
        "coordinates": [
          -53.45857265119424,
          -49.45309659394449
        ]
      }
    },
    {
      "type": "Feature",
      "properties": {
        "norad_id": 35840,
        "name": "COSMOS 2251 DEB",
        "group": "cosmos-2251-debris",
        "lat": 3.816895506543968,
        "lon": -20.925827881627317,
        "alt_km": 799.4789889235262,
        "timestamp": "2025-12-11T15:53:39.940666+00:00",
        "meta_object_name": "COSMOS 2251 DEB",
        "meta_object_id": "1993-036ATN",
        "meta_epoch": "2025-12-11T05:04:15.468096",
        "meta_mean_motion": 14.37804133,
        "meta_eccentricity": 0.01162855,
        "meta_inclination": 73.9308,
        "meta_ra_of_asc_node": 161.0116,
        "meta_arg_of_pericenter": 63.8403,
        "meta_mean_anomaly": 297.4655,
        "meta_ephemeris_type": 0,
        "meta_classification_type": "U",
        "meta_norad_cat_id": 35840,
        "meta_element_set_no": 999,
        "meta_rev_at_epoch": 85269,
        "meta_bstar": 0.0028955438,
        "meta_mean_motion_dot": 9.419e-05,
        "meta_mean_motion_ddot": 0,
        "tle_line1": "1 35840U 93036ATN 25345.21129014  .00009419  00000+0  28955-2 0  9993",
        "tle_line2": "2 35840  73.9308 161.0116 0116285  63.8403 297.4655 14.37804133852697"
      },
      "geometry": {
        "type": "Point",
        "coordinates": [
          -20.925827881627317,
          3.816895506543968
        ]
      }
    },
    {
      "type": "Feature",
      "properties": {
        "norad_id": 35883,
        "name": "COSMOS 2251 DEB",
        "group": "cosmos-2251-debris",
        "lat": 52.62982516111181,
        "lon": -129.97397861825706,
        "alt_km": 704.9148248789934,
        "timestamp": "2025-12-11T15:53:39.940676+00:00",
        "meta_object_name": "COSMOS 2251 DEB",
        "meta_object_id": "1993-036ATW",
        "meta_epoch": "2025-12-08T12:53:27.979296",
        "meta_mean_motion": 14.5058807,
        "meta_eccentricity": 0.00839123,
        "meta_inclination": 74.0248,
        "meta_ra_of_asc_node": 77.932,
        "meta_arg_of_pericenter": 208.211,
        "meta_mean_anomaly": 163.6192,
        "meta_ephemeris_type": 0,
        "meta_classification_type": "U",
        "meta_norad_cat_id": 35883,
        "meta_element_set_no": 999,
        "meta_rev_at_epoch": 62325,
        "meta_bstar": 0.00065719246,
        "meta_mean_motion_dot": 2.667e-05,
        "meta_mean_motion_ddot": 0,
        "tle_line1": "1 35883U 93036ATW 25342.53712939  .00002667  00000+0  65719-3 0  9994",
        "tle_line2": "2 35883  74.0248  77.9320 0083912 208.2110 163.6192 14.50588070623253"
      },
      "geometry": {
        "type": "Point",
        "coordinates": [
          -129.97397861825706,
          52.62982516111181
        ]
      }
    },
    {
      "type": "Feature",
      "properties": {
        "norad_id": 35884,
        "name": "COSMOS 2251 DEB",
        "group": "cosmos-2251-debris",
        "lat": -54.189282083718595,
        "lon": -45.48742646253044,
        "alt_km": 890.9783395181685,
        "timestamp": "2025-12-11T15:53:39.940686+00:00",
        "meta_object_name": "COSMOS 2251 DEB",
        "meta_object_id": "1993-036ATX",
        "meta_epoch": "2025-12-09T17:00:47.209536",
        "meta_mean_motion": 14.25629404,
        "meta_eccentricity": 0.01087033,
        "meta_inclination": 73.9912,
        "meta_ra_of_asc_node": 341.4952,
        "meta_arg_of_pericenter": 129.2859,
        "meta_mean_anomaly": 231.7992,
        "meta_ephemeris_type": 0,
        "meta_classification_type": "U",
        "meta_norad_cat_id": 35884,
        "meta_element_set_no": 999,
        "meta_rev_at_epoch": 22314,
        "meta_bstar": 0.001725321,
        "meta_mean_motion_dot": 4.326e-05,
        "meta_mean_motion_ddot": 0,
        "tle_line1": "1 35884U 93036ATX 25343.70887974  .00004326  00000+0  17253-2 0  9990",
        "tle_line2": "2 35884  73.9912 341.4952 0108703 129.2859 231.7992 14.25629404223146"
      },
      "geometry": {
        "type": "Point",
        "coordinates": [
          -45.48742646253044,
          -54.189282083718595
        ]
      }
    }
  ]
}